{
  "norad_id": 58443,
  "name": "STARLINK-30971",
  "history": [
    {
      "epoch": "2026-03-28T20:32:30.245568Z",
      "apogee_km": 486.2444882843347,
      "perigee_km": 484.83702252381227,
      "latitude_deg": 1.2959654282913915e-06,
      "longitude_deg": 159.13562319825093,
      "height_km": 485.27594595209285,
      "semi_major_axis_km": 6863.677755404074,
      "eccentricity": 0.00010253,
      "inclination_deg": 42.9995,
      "raan_deg": 293.532,
      "arg_perigee_deg": 273.3581,
      "mean_anomaly_deg": 86.7153,
      "mean_motion_rev_day": 15.2674826
    },
    {
      "epoch": "2026-03-28T23:40:55.295904Z",
      "apogee_km": 486.38578266848344,
      "perigee_km": 484.7137885675065,
      "latitude_deg": -1.2311269747320526e-05,
      "longitude_deg": 111.16466503583503,
      "height_km": 485.25686519945504,
      "semi_major_axis_km": 6863.686785617994,
      "eccentricity": 0.0001218,
      "inclination_deg": 42.9998,
      "raan_deg": 292.7944,
      "arg_perigee_deg": 274.7713,
      "mean_anomaly_deg": 85.2999,
      "mean_motion_rev_day": 15.26745247
    },
    {
      "epoch": "2026-03-30T05:30:51.623424Z",
      "apogee_km": 486.42787409803896,
      "perigee_km": 484.6065348183429,
      "latitude_deg": 1.7533084436023463e-05,
      "longitude_deg": 15.442830063944747,
      "height_km": 485.2178755880737,
      "semi_major_axis_km": 6863.65420445819,
      "eccentricity": 0.00013268,
      "inclination_deg": 42.9988,
      "raan_deg": 285.7824,
      "arg_perigee_deg": 274.7823,
      "mean_anomaly_deg": 85.2877,
      "mean_motion_rev_day": 15.26756118
    },
    {
      "epoch": "2026-03-30T13:21:54.748224Z",
      "apogee_km": 486.20025902727593,
      "perigee_km": 484.9137282251113,
      "latitude_deg": -2.2994724397756807e-05,
      "longitude_deg": -104.48815647535694,
      "height_km": 485.22427585545347,
      "semi_major_axis_km": 6863.693993626193,
      "eccentricity": 9.372e-05,
      "inclination_deg": 42.9954,
      "raan_deg": 283.9369,
      "arg_perigee_deg": 279.7194,
      "mean_anomaly_deg": 80.3551,
      "mean_motion_rev_day": 15.26742842
    },
    {
      "epoch": "2026-03-30T19:38:44.808288Z",
      "apogee_km": 486.2683262976316,
      "perigee_km": 484.86071838942826,
      "latitude_deg": -1.7710612211384677e-05,
      "longitude_deg": 159.56873192720477,
      "height_km": 485.2725917287939,
      "semi_major_axis_km": 6863.701522343529,
      "eccentricity": 0.00010254,
      "inclination_deg": 42.9963,
      "raan_deg": 282.4603,
      "arg_perigee_deg": 275.5437,
      "mean_anomaly_deg": 84.5297,
      "mean_motion_rev_day": 15.2674033
    },
    {
      "epoch": "2026-03-31T19:11:52.041696Z",
      "apogee_km": 486.4250896699659,
      "perigee_km": 484.5430847678508,
      "latitude_deg": -2.3963160619652704e-05,
      "longitude_deg": 159.78874074422708,
      "height_km": 485.372844708471,
      "semi_major_axis_km": 6863.6210872189085,
      "eccentricity": 0.0001371,
      "inclination_deg": 43.0016,
      "raan_deg": 276.9277,
      "arg_perigee_deg": 263.174,
      "mean_anomaly_deg": 96.8955,
      "mean_motion_rev_day": 15.26767168
    },
    {
      "epoch": "2026-04-01T18:44:59.097120Z",
      "apogee_km": 486.414561734613,
      "perigee_km": 484.67255960831517,
      "latitude_deg": 1.1344609731495073e-06,
      "longitude_deg": 160.00672653103925,
      "height_km": 485.34984436243286,
      "semi_major_axis_km": 6863.680560671464,
      "eccentricity": 0.0001269,
      "inclination_deg": 43.0016,
      "raan_deg": 271.3923,
      "arg_perigee_deg": 268.0633,
      "mean_anomaly_deg": 92.0073,
      "mean_motion_rev_day": 15.26747324
    },
    {
      "epoch": "2026-04-02T19:52:19.778880Z",
      "apogee_km": 486.41545582485196,
      "perigee_km": 484.72780714654255,
      "latitude_deg": -2.3674437485581745e-05,
      "longitude_deg": 136.23328614006414,
      "height_km": 485.2088507802589,
      "semi_major_axis_km": 6863.708631485697,
      "eccentricity": 0.00012294,
      "inclination_deg": 43.0017,
      "raan_deg": 265.4868,
      "arg_perigee_deg": 279.524,
      "mean_anomaly_deg": 80.5472,
      "mean_motion_rev_day": 15.26737958
    },
    {
      "epoch": "2026-04-03T17:51:13.099968Z",
      "apogee_km": 485.87448915542063,
      "perigee_km": 485.15243312690836,
      "latitude_deg": -6.814139702435306e-06,
      "longitude_deg": 160.44178575557063,
      "height_km": 485.4473157941827,
      "semi_major_axis_km": 6863.650461141164,
      "eccentricity": 5.26e-05,
      "inclination_deg": 42.9971,
      "raan_deg": 260.3202,
      "arg_perigee_deg": 244.0038,
      "mean_anomaly_deg": 116.0759,
      "mean_motion_rev_day": 15.26757367
    },
    {
      "epoch": "2026-04-04T12:41:42.952704Z",
      "apogee_km": 487.2723155974918,
      "perigee_km": 483.82386293494255,
      "latitude_deg": 5.515066254593603e-05,
      "longitude_deg": -127.38033316304762,
      "height_km": 485.20087282952113,
      "semi_major_axis_km": 6863.685089266217,
      "eccentricity": 0.00025121,
      "inclination_deg": 43.0025,
      "raan_deg": 255.8962,
      "arg_perigee_deg": 274.1615,
      "mean_anomaly_deg": 85.895,
      "mean_motion_rev_day": 15.26745813
    },
    {
      "epoch": "2026-04-05T12:14:53.045952Z",
      "apogee_km": 486.8180003728212,
      "perigee_km": 484.6696056814744,
      "latitude_deg": 4.206264935685391e-05,
      "longitude_deg": -127.17898295114944,
      "height_km": 485.12552571686604,
      "semi_major_axis_km": 6863.8808030271475,
      "eccentricity": 0.0001565,
      "inclination_deg": 42.9984,
      "raan_deg": 250.3569,
      "arg_perigee_deg": 291.5741,
      "mean_anomaly_deg": 68.4944,
      "mean_motion_rev_day": 15.26680514
    },
    {
      "epoch": "2026-04-05T20:05:54.804768Z",
      "apogee_km": 486.5387565759047,
      "perigee_km": 484.80797815366896,
      "latitude_deg": 4.377005603338478e-05,
      "longitude_deg": 112.89838177048264,
      "height_km": 485.28729183993545,
      "semi_major_axis_km": 6863.8103673647865,
      "eccentricity": 0.00012608,
      "inclination_deg": 43.0012,
      "raan_deg": 248.514,
      "arg_perigee_deg": 280.8487,
      "mean_anomaly_deg": 79.2223,
      "mean_motion_rev_day": 15.26704014
    },
    {
      "epoch": "2026-04-07T09:46:52.762368Z",
      "apogee_km": 486.7267907311398,
      "perigee_km": 484.3831144770029,
      "latitude_deg": -2.9745354736312892e-05,
      "longitude_deg": -102.74556680057691,
      "height_km": 485.07459900597985,
      "semi_major_axis_km": 6863.691952604071,
      "eccentricity": 0.00017073,
      "inclination_deg": 43.0031,
      "raan_deg": 239.6592,
      "arg_perigee_deg": 282.7057,
      "mean_anomaly_deg": 77.3603,
      "mean_motion_rev_day": 15.26743523
    },
    {
      "epoch": "2026-04-08T15:36:50.257152Z",
      "apogee_km": 486.6554270731658,
      "perigee_km": 484.47359363705436,
      "latitude_deg": -5.792206334453013e-06,
      "longitude_deg": 161.52871051048118,
      "height_km": 485.1469544063471,
      "semi_major_axis_km": 6863.70151035511,
      "eccentricity": 0.00015894,
      "inclination_deg": 43.0027,
      "raan_deg": 232.6482,
      "arg_perigee_deg": 280.2864,
      "mean_anomaly_deg": 79.7808,
      "mean_motion_rev_day": 15.26740334
    },
    {
      "epoch": "2026-04-09T15:09:57.218400Z",
      "apogee_km": 486.3035023948223,
      "perigee_km": 484.7976093450634,
      "latitude_deg": -4.235528260950235e-06,
      "longitude_deg": 161.74676050635273,
      "height_km": 485.26117378330525,
      "semi_major_axis_km": 6863.687555869942,
      "eccentricity": 0.0001097,
      "inclination_deg": 43.0008,
      "raan_deg": 227.1125,
      "arg_perigee_deg": 275.0291,
      "mean_anomaly_deg": 85.0435,
      "mean_motion_rev_day": 15.2674499
    },
    {
      "epoch": "2026-04-11T15:50:24.973728Z",
      "apogee_km": 486.66406158282825,
      "perigee_km": 484.4868919851915,
      "latitude_deg": 2.1596954544100983e-06,
      "longitude_deg": 138.19333003169513,
      "height_km": 485.2779612388106,
      "semi_major_axis_km": 6863.71247678401,
      "eccentricity": 0.0001586,
      "inclination_deg": 43.001,
      "raan_deg": 215.6737,
      "arg_perigee_deg": 273.928,
      "mean_anomaly_deg": 86.139,
      "mean_motion_rev_day": 15.26736675
    },
    {
      "epoch": "2026-04-13T07:05:36.377952Z",
      "apogee_km": 486.38927777909157,
      "perigee_km": 484.7362243310472,
      "latitude_deg": -2.3091539413373695e-05,
      "longitude_deg": -101.44098568215051,
      "height_km": 485.3552416559471,
      "semi_major_axis_km": 6863.699751055069,
      "eccentricity": 0.00012042,
      "inclination_deg": 43.001,
      "raan_deg": 206.449,
      "arg_perigee_deg": 268.9075,
      "mean_anomaly_deg": 91.1638,
      "mean_motion_rev_day": 15.26740921
    },
    {
      "epoch": "2026-04-14T14:29:46.236768Z",
      "apogee_km": 486.41864469412303,
      "perigee_km": 484.6876220424874,
      "latitude_deg": 3.9769378298302174e-05,
      "longitude_deg": 138.84863963242023,
      "height_km": 485.40848858391735,
      "semi_major_axis_km": 6863.690133368305,
      "eccentricity": 0.0001261,
      "inclination_deg": 43.0015,
      "raan_deg": 199.0693,
      "arg_perigee_deg": 264.7936,
      "mean_anomaly_deg": 95.2772,
      "mean_motion_rev_day": 15.2674413
    },
    {
      "epoch": "2026-04-15T14:02:53.136672Z",
      "apogee_km": 486.47390232626185,
      "perigee_km": 484.64266842412417,
      "latitude_deg": 2.6027259804770765e-05,
      "longitude_deg": 139.0682343002905,
      "height_km": 485.37825250849136,
      "semi_major_axis_km": 6863.695285375193,
      "eccentricity": 0.0001334,
      "inclination_deg": 43.0015,
      "raan_deg": 193.5349,
      "arg_perigee_deg": 267.3032,
      "mean_anomaly_deg": 92.7667,
      "mean_motion_rev_day": 15.26742411
    }
  ]
}